{"version": 0.6, "generator": "Overpass API 0.7.62.5 1bd436f1", "osm3s": {"timestamp_osm_base": "2025-05-13T18:44:43Z", "copyright": "The data included in this document is from www.openstreetmap.org. The data is made available under ODbL."}, "elements": [{"type": "node", "id": 319258499, "lat": -19.9388896, "lon": -43.9198583, "tags": {"amenity": "bar", "name": "Bar do Salom\u00e3o"}}, {"type": "node", "id": 338835579, "lat": -19.9319766, "lon": -43.9239685, "tags": {"amenity": "bar", "name": "Villa Rizza"}}, {"type": "node", "id": 560387242, "lat": -19.9165667, "lon": -43.9353045, "tags": {"amenity": "bar"}}, {"type": "node", "id": 560387248, "lat": -19.9164537, "lon": -43.9358109, "tags": {"amenity": "bar", "historic": "monument"}}, {"type": "node", "id": 700201180, "lat": -19.8422402, "lon": -43.9746325, "tags": {"amenity": "bar"}}, {"type": "node", "id": 882261650, "lat": -19.9222819, "lon": -43.9528477, "tags": {"addr:city": "Belo Horizonte", "addr:country": "BR", "addr:housenumber": "2130", "addr:street": "Rua Guajajaras", "amenity": "bar", "cuisine": "yes", "name": "Alad'ns Bar (Frango Frito)"}}, {"type": "node", "id": 883409935, "lat": -19.8577085, "lon": -43.9610914, "tags": {"amenity": "bar"}}, {"type": "node", "id": 983467253, "lat": -19.939005, "lon": -43.918923, "tags": {"amenity": "bar", "name": "Bar do Cabral"}}, {"type": "node", "id": 986578984, "lat": -19.9436318, "lon": -43.9405229, "tags": {"amenity": "bar", "cuisine": "brazilian", "name": "Oficina de Ideias", "wheelchair": "no"}}, {"type": "node", "id": 993654819, "lat": -19.9228595, "lon": -43.9439144, "tags": {"amenity": "bar"}}, {"type": "node", "id": 1087057065, "lat": -19.9370383, "lon": -43.93438, "tags": {"amenity": "bar", "cuisine": "yes", "name": "Bar do Jo\u00e3o", "wheelchair": "limited"}}, {"type": "node", "id": 1087086179, "lat": -19.9375182, "lon": -43.9323271, "tags": {"addr:street": "Rua Tom\u00e9 de Souza", "amenity": "bar", "cuisine": "yes", "name": "Afrodic"}}, {"type": "node", "id": 1099439432, "lat": -19.9371118, "lon": -43.9593152, "tags": {"amenity": "bar", "name": "Bar do Doca"}}, {"type": "node", "id": 1123482327, "lat": -19.924401, "lon": -43.9217621, "tags": {"amenity": "bar", "name": "Orat\u00f3rio", "phone": "+55 31 3241-7112"}}, {"type": "node", "id": 1139177998, "lat": -19.8885279, "lon": -44.0021977, "tags": {"amenity": "bar", "name": "Tudo na Brasa", "source": "survey"}}, {"type": "node", "id": 1183085991, "lat": -19.9747705, "lon": -43.9416915, "tags": {"addr:housenumber": "673", "amenity": "bar", "brewery": "yes;various", "name": "Parada Carioca", "smoking": "outside"}}, {"type": "node", "id": 1183085995, "lat": -19.9708127, "lon": -43.9515462, "tags": {"amenity": "bar", "name": "Swingers"}}, {"type": "node", "id": 1183086000, "lat": -19.9721791, "lon": -43.9494648, "tags": {"amenity": "bar", "name": "Ut\u00f3pica"}}, {"type": "node", "id": 1234307389, "lat": -19.9275036, "lon": -43.9352378, "tags": {"amenity": "bar", "name": "Tonel de Pinga"}}, {"type": "node", "id": 1239338311, "lat": -19.9170932, "lon": -43.915147, "tags": {"amenity": "bar", "name": "Bar Charlotte"}}, {"type": "node", "id": 1240914399, "lat": -19.936758, "lon": -43.9454952, "tags": {"amenity": "bar", "name": "Bar Tudo Legal"}}, {"type": "node", "id": 1240916124, "lat": -19.9360012, "lon": -43.9454534, "tags": {"amenity": "bar", "name": "Bar Altas Horas"}}, {"type": "node", "id": 1240953189, "lat": -19.9397634, "lon": -43.9414469, "tags": {"amenity": "bar", "name": "Lafa"}}, {"type": "node", "id": 1250523058, "lat": -19.8780878, "lon": -43.9343448, "tags": {"amenity": "bar", "name": "2 conto"}}, {"type": "node", "id": 1250523076, "lat": -19.878296, "lon": -43.9344501, "tags": {"amenity": "bar"}}, {"type": "node", "id": 1268796060, "lat": -19.9658558, "lon": -43.9822972, "tags": {"amenity": "bar", "food": "yes", "name": "Ponto do Frango"}}, {"type": "node", "id": 1268796116, "lat": -19.9656622, "lon": -43.9818828, "tags": {"amenity": "bar", "name": "Bar do Ricardo", "phone": "+55 31 2511-6672"}}, {"type": "node", "id": 1268796120, "lat": -19.9657222, "lon": -43.9826989, "tags": {"amenity": "bar", "food": "yes", "name": "Ximbungo's Bar"}}, {"type": "node", "id": 1268841778, "lat": -19.9662678, "lon": -43.9843085, "tags": {"amenity": "bar", "food": "yes"}}, {"type": "node", "id": 1299690714, "lat": -19.9457371, "lon": -43.9378351, "tags": {"addr:housenumber": "56", "addr:postcode": "30330-012", "addr:street": "Rua S\u00e3o Rom\u00e3o", "amenity": "bar", "name": "Butiquim da Carne"}}, {"type": "node", "id": 1310670963, "lat": -19.9390281, "lon": -43.9451267, "tags": {"amenity": "bar", "name": "Butiquim Quintiliano"}}, {"type": "node", "id": 1310686057, "lat": -19.9387988, "lon": -43.9475387, "tags": {"amenity": "bar", "name": "Ponto do Espetinho 2"}}, {"type": "node", "id": 1358281249, "lat": -19.9046139, "lon": -43.9384085, "tags": {"amenity": "bar", "name": "Chic T\u00e1cio"}}, {"type": "node", "id": 1400044384, "lat": -19.9454074, "lon": -43.9416309}, {"type": "node", "id": 1400044385, "lat": -19.9455446, "lon": -43.9416628}, {"type": "node", "id": 1400044386, "lat": -19.945445, "lon": -43.9414557}, {"type": "node", "id": 1400044387, "lat": -19.9455852, "lon": -43.9414951}, {"type": "node", "id": 1449295109, "lat": -19.9425379, "lon": -43.9324412, "tags": {"amenity": "bar", "name": "Berga 8"}}, {"type": "node", "id": 1449295111, "lat": -19.9454828, "lon": -43.9418235, "tags": {"amenity": "bar", "name": "O Inusitado"}}, {"type": "node", "id": 1449295113, "lat": -19.9458055, "lon": -43.9412442, "tags": {"amenity": "bar", "name": "Via Cristina"}}, {"type": "node", "id": 1449295115, "lat": -19.9457652, "lon": -43.9306226, "tags": {"amenity": "bar", "name": "Caf\u00e9 do Carmo"}}, {"type": "node", "id": 1449295118, "lat": -19.9465771, "lon": -43.9308587, "tags": {"amenity": "bar", "name": "Peixe Boi"}}, {"type": "node", "id": 1449295122, "lat": -19.9455282, "lon": -43.9305636, "tags": {"amenity": "bar", "name": "Almanaque"}}, {"type": "node", "id": 1449295124, "lat": -19.9390987, "lon": -43.9318779, "tags": {"amenity": "bar", "name": "Espetinho da Esquina"}}, {"type": "node", "id": 1462031750, "lat": -19.9025363, "lon": -43.9651686, "tags": {"amenity": "bar", "name": "Faculdade do Espeto"}}, {"type": "node", "id": 1481256147, "lat": -19.9240476, "lon": -43.9591016, "tags": {"amenity": "bar", "name": "Espetinho do Luizinho"}}, {"type": "node", "id": 1504619363, "lat": -19.8621087, "lon": -43.9712119, "tags": {"alt_name": "Clube Atl\u00e9tico Mineiro", "amenity": "bar", "name": "Bar do Galo", "source": "Clube Atl\u00e9tico Mineiro"}}, {"type": "node", "id": 1505095154, "lat": -19.9384877, "lon": -43.9345192, "tags": {"amenity": "bar", "name": "Orizontino", "wheelchair": "limited"}}, {"type": "node", "id": 1505096899, "lat": -19.9176807, "lon": -43.9360079, "tags": {"amenity": "bar", "name": "Apetite Bar & Restaurante"}}, {"type": "node", "id": 1507495539, "lat": -19.9352364, "lon": -43.929325, "tags": {"amenity": "bar", "name": "Social"}}, {"type": "node", "id": 1507952469, "lat": -19.9443037, "lon": -43.9316319, "tags": {"amenity": "bar", "name": "Bar do John"}}, {"type": "node", "id": 1511455581, "lat": -19.9261134, "lon": -43.9462549, "tags": {"amenity": "bar", "name": "Balaio de Gato"}}, {"type": "node", "id": 1514347581, "lat": -19.9411872, "lon": -43.9489722, "tags": {"amenity": "bar", "name": "Bar do Mandruva"}}, {"type": "node", "id": 1523690513, "lat": -19.9420157, "lon": -43.9361456, "tags": {"addr:city": "Belo Horizonte", "addr:housenumber": "172", "addr:postcode": "30320-380", "addr:street": "Rua Major Lopes", "addr:suburb": "S\u00e3o Pedro", "amenity": "bar", "internet_access": "wlan", "internet_access:fee": "no", "name": "Krug Bier", "opening_hours": "Mo-Fr 18:00-01:00; Sa-Su 13:00-01:30"}}, {"type": "node", "id": 1569200697, "lat": -19.9204055, "lon": -43.9437659, "tags": {"amenity": "bar", "name": "Guga's bar"}}, {"type": "node", "id": 1571405980, "lat": -19.923755, "lon": -43.940009, "tags": {"amenity": "bar"}}, {"type": "node", "id": 1584761526, "lat": -19.9331507, "lon": -43.9369708, "tags": {"amenity": "bar", "name": "Bar Liberdade"}}, {"type": "node", "id": 1594729188, "lat": -19.9392347, "lon": -43.9188395, "tags": {"amenity": "bar"}}, {"type": "node", "id": 1610351078, "lat": -19.9703723, "lon": -43.96559, "tags": {"amenity": "bar", "name": "Churrasquinho do Buritis"}}, {"type": "node", "id": 1614340602, "lat": -19.9290986, "lon": -43.9293161, "tags": {"amenity": "bar"}}, {"type": "node", "id": 1621808320, "lat": -19.9452609, "lon": -43.9389611, "tags": {"amenity": "bar", "name": "Espetinho S\u00e3o Pedro"}}, {"type": "node", "id": 1668656090, "lat": -19.9073401, "lon": -43.9578833, "tags": {"amenity": "bar", "name": "Esquin\u00e3o do Carrpicho"}}, {"type": "node", "id": 1707915609, "lat": -19.9052067, "lon": -43.9718817, "tags": {"amenity": "bar", "name": "Deck", "source": "survey"}}, {"type": "node", "id": 1710086691, "lat": -19.8947684, "lon": -43.9599465, "tags": {"amenity": "bar", "name": "Churrasquinho do Divino"}}, {"type": "node", "id": 1719398379, "lat": -19.8744732, "lon": -43.9901066, "tags": {"amenity": "bar", "name": "Ouro Beer"}}, {"type": "node", "id": 1719827745, "lat": -19.948503, "lon": -43.9338936, "tags": {"amenity": "bar", "name": "Bar do Ant\u00f4nio"}}, {"type": "node", "id": 1723315293, "lat": -19.9090992, "lon": -43.9683517, "tags": {"addr:housenumber": "291", "addr:street": "Rua Marambaia", "amenity": "bar", "name": "Mul\u00e3o"}}, {"type": "node", "id": 1723323991, "lat": -19.9456523, "lon": -43.9295759, "tags": {"addr:housenumber": "222", "addr:street": "Rua Francisco Deslandes", "amenity": "bar", "name": "222"}}, {"type": "node", "id": 1723328031, "lat": -19.8774492, "lon": -43.9348736, "tags": {"amenity": "bar", "name": "Adega & Churrasco"}}, {"type": "node", "id": 1723329259, "lat": -19.9255897, "lon": -43.9616199, "tags": {"addr:housenumber": "298", "addr:street": "Rua Esmeralda", "amenity": "bar", "name": "Agosto Butequim"}}, {"type": "node", "id": 1723331976, "lat": -19.9330097, "lon": -43.9545872, "tags": {"addr:housenumber": "345", "addr:street": "Rua Matias Cardoso", "amenity": "bar", "name": "Ali Ba Bar"}}, {"type": "node", "id": 1723336270, "lat": -19.9669788, "lon": -43.9606544, "tags": {"addr:housenumber": "895", "addr:street": "Avenida Professor M\u00e1rio Werneck", "amenity": "bar", "name": "Autentico's Bar"}}, {"type": "node", "id": 1723344153, "lat": -19.8386614, "lon": -43.9301994, "tags": {"addr:housenumber": "287", "addr:street": "Rua Numa Nogueira", "amenity": "bar", "name": "Bar da Cida"}}, {"type": "node", "id": 1723353536, "lat": -19.9063179, "lon": -43.9722832, "tags": {"addr:housenumber": "774", "addr:street": "Rua Belmiro Braga", "amenity": "bar", "name": "Pedacinhos do C\u00e9u", "source": "survey"}}, {"type": "node", "id": 1724796042, "lat": -19.826876, "lon": -43.9647772, "tags": {"amenity": "bar", "name": "Bar do Jo\u00e3o"}}, {"type": "node", "id": 1726093849, "lat": -19.980685, "lon": -44.0128009, "tags": {"addr:housenumber": "406", "addr:street": "Rua Pinheiro Chagas", "amenity": "bar", "name": "Bar do Zez\u00e9"}}, {"type": "node", "id": 1726095198, "lat": -19.8519534, "lon": -43.912707, "tags": {"addr:housenumber": "493", "addr:street": "Rua Momba\u00e7a", "amenity": "bar", "name": "Bar\u00e7\u00e3o Moreira"}}, {"type": "node", "id": 1733445823, "lat": -19.9317742, "lon": -43.9256463, "tags": {"amenity": "bar", "name": "Bar e Cervejaria Brasil"}}, {"type": "node", "id": 1743759769, "lat": -19.9015614, "lon": -43.9708563, "tags": {"amenity": "bar", "name": "T\u00f4at\u00f4a Butequeria", "old_name": "Primo's Bar;Ponto do Tropeiro", "source": "Bing,survey"}}, {"type": "node", "id": 1746773549, "lat": -19.928784, "lon": -43.9314757, "tags": {"amenity": "bar", "name": "Fam\u00edlia Adams"}}, {"type": "node", "id": 1768240615, "lat": -19.9264996, "lon": -43.9662255, "tags": {"addr:housenumber": "865", "addr:street": "Rua Turquesa", "amenity": "bar", "name": "Patorroco", "source": "Bing,survey"}}, {"type": "node", "id": 1829326146, "lat": -19.9781045, "lon": -44.0261548, "tags": {"amenity": "bar", "name": "Bar do L\u00fa"}}, {"type": "node", "id": 1833445365, "lat": -19.9426364, "lon": -43.9322828, "tags": {"amenity": "bar", "name": "Bar do Nono"}}, {"type": "node", "id": 1849662587, "lat": -19.9269714, "lon": -43.9406726, "tags": {"amenity": "bar", "name": "Casa Antiga"}}, {"type": "node", "id": 1853010608, "lat": -19.9460098, "lon": -43.9286452, "tags": {"addr:housenumber": "738", "addr:street": "Montes Claros", "amenity": "bar", "name": "Barezinho Butequim", "website": "http://www.facebook.com/barezinhobutiquim"}}, {"type": "node", "id": 1853025732, "lat": -19.9461447, "lon": -43.9284313, "tags": {"amenity": "bar", "name": "Chxico do Churrasco"}}, {"type": "node", "id": 1857891039, "lat": -19.9308139, "lon": -43.9339272, "tags": {"amenity": "bar", "name": "Ponto dos Amigos"}}, {"type": "node", "id": 1862231515, "lat": -19.8627678, "lon": -43.9709411}, {"type": "node", "id": 1967374681, "lat": -19.8788654, "lon": -43.9928427, "tags": {"addr:street": "Rua Tancredo Neves", "amenity": "bar", "name": "Espeto do Manoel III"}}, {"type": "node", "id": 2162852888, "lat": -19.9157084, "lon": -43.9277496, "tags": {"amenity": "bar", "check_date:opening_hours": "2024-01-05", "name": "Mascate", "opening_hours:signed": "no"}}, {"type": "node", "id": 2168311428, "lat": -19.9454753, "lon": -43.9818786, "tags": {"amenity": "bar", "name": "BarBambu", "wifi": "no"}}, {"type": "node", "id": 2285761087, "lat": -19.862845, "lon": -43.9711561}, {"type": "node", "id": 2285761105, "lat": -19.8627893, "lon": -43.9709328}, {"type": "node", "id": 2285761107, "lat": -19.8627572, "lon": -43.9711567}, {"type": "node", "id": 2291788905, "lat": -19.8887402, "lon": -43.9237669, "tags": {"amenity": "bar", "name": "Sabor Real", "source": "Bing"}}, {"type": "node", "id": 2363318977, "lat": -19.8018729, "lon": -43.9934044, "tags": {"addr:housename": "Casa", "addr:housenumber": "320", "addr:postcode": "31680-120", "addr:street": "Rua Tenente Marino Freire", "alt_name": "Parauna's bar", "amenity": "bar", "name": "Bar do Jesu", "wifi": "no"}}, {"type": "node", "id": 2435336646, "lat": -19.9621626, "lon": -43.9501065, "tags": {"amenity": "bar", "name": "Boi Bento"}}, {"type": "node", "id": 2451010713, "lat": -19.8244541, "lon": -43.9358862, "tags": {"addr:city": "Belo Horizonte", "addr:housename": "JOS\u00c9 PINTO DE MOURA", "addr:housenumber": "480", "addr:street": "Rua Jos\u00e9 Pinto de Moura", "amenity": "bar", "name": "D'Gust Burguer"}}, {"type": "node", "id": 2710039448, "lat": -19.9214916, "lon": -43.9957582, "tags": {"amenity": "bar"}}, {"type": "node", "id": 2710039464, "lat": -19.9203518, "lon": -43.9968552, "tags": {"amenity": "bar"}}, {"type": "node", "id": 2723795122, "lat": -19.9330851, "lon": -44.0166721, "tags": {"amenity": "bar", "name": "Amarelim"}}, {"type": "node", "id": 2791792202, "lat": -19.9243533, "lon": -43.9216808, "tags": {"amenity": "bar", "name": "Noa Noa"}}, {"type": "node", "id": 2791792262, "lat": -19.9242827, "lon": -43.921595, "tags": {"amenity": "bar", "name": "Rei do Omelete"}}, {"type": "node", "id": 2791792327, "lat": -19.924865, "lon": -43.9232067, "tags": {"amenity": "bar", "name": "Granfinos"}}, {"type": "node", "id": 3010513661, "lat": -19.9207473, "lon": -43.9421087, "tags": {"amenity": "bar", "name": "Mickey Caldo de Mocot\u00f3", "opening_hours": "open"}}, {"type": "node", "id": 3265472969, "lat": -19.8862503, "lon": -43.9276549}, {"type": "node", "id": 3265472970, "lat": -19.886348, "lon": -43.9274815}, {"type": "node", "id": 3265472971, "lat": -19.8863805, "lon": -43.9274653}, {"type": "node", "id": 3265472972, "lat": -19.8864398, "lon": -43.927449}, {"type": "node", "id": 3265472973, "lat": -19.8865105, "lon": -43.9274937}, {"type": "node", "id": 3265472974, "lat": -19.8863827, "lon": -43.9277367}, {"type": "node", "id": 3833617582, "lat": -19.9370906, "lon": -43.9378834, "tags": {"addr:city": "Belo Horizonte", "addr:housenumber": "1211", "addr:postcode": "30130171", "addr:street": "Rua Sergipe", "addr:suburb": "Savassi", "amenity": "bar", "name": "Bhar Savassi", "opening_hours": "11:00-15:00, 18:00-4:00"}}, {"type": "node", "id": 3833617583, "lat": -19.9462999, "lon": -43.9355648, "tags": {"addr:city": "Belo Horizonte", "addr:housenumber": "709", "addr:postcode": "30330-050", "addr:street": "Rua Major Lopes", "addr:suburb": "S\u00e3o Pedro", "amenity": "bar", "name": "Bar Entre Folhas", "opening_hours": "Mo-Th 11:30-14:30; Fr-Sa 11:30-14:30, 20:00-03:00"}}, {"type": "node", "id": 3833617585, "lat": -19.9551001, "lon": -43.9295569, "tags": {"addr:city": "Belo Horizonte", "addr:housenumber": "506", "addr:postcode": "30315-382", "addr:street": "Avenida dos Bandeirantes", "addr:suburb": "Comiteco", "amenity": "bar", "name": "Confraria do Malte", "opening_hours": "Mo-Sa 10:00-21:00; Su10:00-14:00"}}, {"type": "node", "id": 4227475550, "lat": -19.9167412, "lon": -43.9160453, "tags": {"amenity": "bar", "name": "Bol\u00e3o 2"}}, {"type": "node", "id": 4227476199, "lat": -19.9163726, "lon": -43.9120776, "tags": {"amenity": "bar", "name": "Fundo da Floresta", "opening_hours": "Fr-Sa 19:00-03:00"}}, {"type": "node", "id": 4530481930, "lat": -19.9395746, "lon": -43.9355581, "tags": {"amenity": "bar", "name": "S\u00e1tira"}}, {"type": "node", "id": 4530482004, "lat": -19.9387015, "lon": -43.9344083, "tags": {"amenity": "bar", "name": "Carnossauro"}}, {"type": "node", "id": 4623163690, "lat": -19.9280595, "lon": -43.959751, "tags": {"addr:housenumber": "658", "addr:street": "Avenida Francisco S\u00e1", "amenity": "bar", "cuisine": "fish;grill;fish_and_chips;brazilian;kebab;friture", "name": "Amarelim - Grelhados e Comida de Buteco", "name:pt": "Amarelim - Grelhados e Comida de Buteco"}}, {"type": "node", "id": 5067721029, "lat": -19.9396729, "lon": -43.9297661, "tags": {"addr:housenumber": "5623", "addr:street": "Avenida do Contorno", "amenity": "bar", "name": "Jack Rock Bar", "name:pt": "Jack Rock Bar"}}, {"type": "node", "id": 5078923302, "lat": -19.9125115, "lon": -43.9747759, "tags": {"amenity": "bar", "name": "Auto Espeto"}}, {"type": "node", "id": 5157330721, "lat": -19.9281294, "lon": -43.9367155, "tags": {"amenity": "bar", "name": "Corleone"}}, {"type": "node", "id": 5166557323, "lat": -19.9170428, "lon": -43.9036126, "tags": {"addr:housenumber": "222", "addr:street": "Rua Juramento", "amenity": "bar", "cuisine": "sandwich;tapas", "name": "Cervejaria Viela", "name:de": "Brauerei Viela", "name:en": "Brewery Viela", "name:es": "Cerveceria Viela", "name:fr": "Brasserie Viela"}}, {"type": "node", "id": 5216455044, "lat": -19.9463343, "lon": -43.9614533, "tags": {"addr:city": "Belo Horizonte", "addr:housenumber": "275", "addr:postcode": "30451-225", "addr:street": "Rua MARCELO ARAUJO DE BRAGA", "addr:suburb": "VILA ANTENA", "amenity": "bar", "name": "Bar DO DENTINHO"}}, {"type": "node", "id": 5221936526, "lat": -19.9468144, "lon": -43.961706, "tags": {"amenity": "bar", "name": "Bar dos Amigos"}}, {"type": "node", "id": 5678464419, "lat": -19.9397566, "lon": -43.9375429, "tags": {"addr:city": "Belo Horizonte", "addr:housenumber": "1470", "addr:street": "Rua Alagoas", "addr:suburb": "Savassi", "amenity": "bar", "name": "Duke 'n Duke"}}, {"type": "node", "id": 5678464420, "lat": -19.9246052, "lon": -43.937906, "tags": {"addr:city": "Belo Horizonte", "addr:housenumber": "245", "addr:street": "Avenida Augusto de Lima", "addr:suburb": "Centro", "amenity": "bar", "name": "Duke 'n Duke"}}, {"type": "node", "id": 5871096786, "lat": -19.9603972, "lon": -43.9701807, "tags": {"addr:city": "Belo Horizonte", "addr:housenumber": "297", "addr:postcode": "30570350", "addr:street": "Rua Dona Maria Diniz Ferreira", "addr:suburb": "Hava\u00ed", "amenity": "bar", "brewery": "various;guinness", "name": "Lotus Lounge", "opening_hours": "Mo-Fr 17:00-00:00", "outdoor_seating": "yes", "smoking": "no"}}, {"type": "node", "id": 5981838794, "lat": -19.8556997, "lon": -43.9568996, "tags": {"addr:housenumber": "387", "addr:street": "Rua Noraldino Lima", "amenity": "bar", "contact:phone": "+55 31 25281232", "contact:website": "https://souljazzburger.negocio.site/", "cuisine": "burger", "name": "Soul Jazz Burger", "outdoor_seating": "yes"}}, {"type": "node", "id": 6664882430, "lat": -19.9526981, "lon": -43.9992008, "tags": {"amenity": "bar", "name": "paj\u00e9"}}, {"type": "node", "id": 7972238429, "lat": -19.9184132, "lon": -43.9328028, "tags": {"addr:street": "Rua Sapuca\u00ed, 533", "amenity": "bar", "name": "Sir\u00e8ne", "opening_hours": "Mo-Fr 18:00-22:00; Sa 15:00-22:00; PH closed", "wheelchair": "no"}}, {"type": "node", "id": 8412748620, "lat": -19.9746431, "lon": -43.9767287, "tags": {"addr:city": "Belo Horizonte", "addr:housenumber": "141", "addr:postcode": "30575-834", "addr:street": "Avenida Aggeo Pio Sobrinho", "addr:suburb": "Buritis", "amenity": "bar", "level": "0", "name": "Kombi Bar", "opening_hours": "Tu-Sa 18:00-00:00", "outdoor_seating": "yes", "smoking": "outside"}}, {"type": "node", "id": 8412748635, "lat": -19.974958, "lon": -43.9769282, "tags": {"addr:city": "Belo Horizonte", "addr:housenumber": "187", "addr:postcode": "30575-834", "addr:street": "Avenida Aggeo Pio Sobrinho", "addr:suburb": "Buritis", "amenity": "bar", "name": "StahlBerg Bier Haus", "outdoor_seating": "yes", "smoking": "outside"}}, {"type": "node", "id": 8929643548, "lat": -19.9180923, "lon": -43.9326859, "tags": {"addr:housenumber": "499", "addr:street": "Rua Sapuca\u00ed", "amenity": "bar", "name": "Bar Sapuca\u00ed", "opening_hours": "Su 15:00-21:00; Tu-Sa 15:00-22:00"}}, {"type": "node", "id": 8934210935, "lat": -19.8611551, "lon": -43.9150166, "tags": {"addr:city": "Belo Horizonte", "addr:housenumber": "239", "addr:postcode": "31930650", "addr:street": "Rua Ferreira", "amenity": "bar", "brewery": "various", "min_age": "18", "name": "Bar do Hugo", "opening_hours": "Mo-Sa 18:00 - 02:00"}}, {"type": "node", "id": 8997122028, "lat": -19.8608593, "lon": -43.9772973, "tags": {"addr:city": "Belo Horizonte", "addr:housenumber": "2870", "addr:postcode": "31365-450", "addr:street": "Avenida Otac\u00edlio Negr\u00e3o de Lima", "addr:suburb": "Pampulha", "air_conditioning": "yes", "amenity": "bar", "internet_access": "yes", "name": "Eleve Rooftop", "outdoor_seating": "yes", "wheelchair": "yes"}}, {"type": "node", "id": 9364436878, "lat": -19.9189831, "lon": -43.9359599, "tags": {"addr:housenumber": "478", "amenity": "bar", "description": "Bar do Vandinho", "name": "Black Beer"}}, {"type": "node", "id": 9468513800, "lat": -19.8817267, "lon": -43.9082499, "tags": {"amenity": "bar", "name": "Chopp"}}, {"type": "node", "id": 9678581908, "lat": -19.9119165, "lon": -43.996926, "tags": {"addr:city": "Belo Horizonte", "addr:housenumber": "432", "addr:postcode": "30830-093", "addr:street": "Avenida Ab\u00edlio Machado", "addr:suburb": "Loja 01 e 02", "amenity": "bar", "min_age": "18", "name": "CTI - Conhe\u00e7a Tudo Isso", "opening_hours": "Mo-Su 10:00-21:00"}}, {"type": "node", "id": 9715898502, "lat": -19.9195082, "lon": -43.9346201, "tags": {"addr:city": "Belo Horizonte", "addr:housenumber": "554", "addr:postcode": "30120-000", "addr:street": "Rua Aar\u00e3o Reis", "addr:suburb": "Centro", "amenity": "bar", "lgbtq": "welcome", "min_age": "18", "name": "ZONA", "opening_hours": "22:00 - 06:00"}}, {"type": "node", "id": 9735225420, "lat": -19.9216014, "lon": -43.9146548, "tags": {"addr:city": "Belo Horizonte", "addr:housenumber": "691", "addr:postcode": "30260-100", "addr:street": "Rua Niquelina", "addr:suburb": "Santa Efigenia", "amenity": "bar", "brewery": "various", "min_age": "18", "name": "Casa do Samba Resenha", "opening_hours": "Mo-Su 08:00-22:00"}}, {"type": "node", "id": 9964968169, "lat": -19.9687645, "lon": -43.9855738, "tags": {"amenity": "bar", "name": "Bar do Pangar\u00e9"}}, {"type": "node", "id": 10102560825, "lat": -19.9265319, "lon": -43.9930448, "tags": {"addr:street": "Avenida Dom Jos\u00e9 Gaspar", "amenity": "bar", "name": "Distribuidora de Bebidas", "phone": "31996300306"}}, {"type": "node", "id": 10102560826, "lat": -19.9259247, "lon": -43.9957913, "tags": {"amenity": "bar", "name": "Bar do Geraldinho"}}, {"type": "node", "id": 10102560829, "lat": -19.9328496, "lon": -43.9977192, "tags": {"amenity": "bar", "name": "Distribuidora Quebec"}}, {"type": "node", "id": 10102560830, "lat": -19.9233941, "lon": -43.9985311, "tags": {"amenity": "bar", "name": "Brasa Beer"}}, {"type": "node", "id": 10102560831, "lat": -19.924186, "lon": -43.9997288, "tags": {"amenity": "bar", "name": "Distribuidora dos Meninu"}}, {"type": "node", "id": 10102560832, "lat": -19.9275521, "lon": -43.9891385, "tags": {"amenity": "bar", "name": "Coreu Distribuidora"}}, {"type": "node", "id": 10791350944, "lat": -19.8991251, "lon": -43.9573414, "tags": {"addr:postcode": "31230-430", "addr:street": "Rua Natal", "addr:suburb": "Bairro Santo Andre", "amenity": "bar"}}, {"type": "node", "id": 11255243527, "lat": -19.9149159, "lon": -43.9378103, "tags": {"amenity": "bar", "name": "Bar & Rest. Bin Laden"}}, {"type": "node", "id": 11255398364, "lat": -19.9348126, "lon": -43.9316853, "tags": {"amenity": "bar", "name": "Stop Chopp"}}, {"type": "node", "id": 12227891779, "lat": -19.9806377, "lon": -44.0126051, "tags": {"addr:street": "Rua Pinheiro Chagas", "amenity": "bar"}}, {"type": "node", "id": 12305040988, "lat": -19.9299216, "lon": -43.9428836}, {"type": "node", "id": 12305040989, "lat": -19.929946, "lon": -43.9427882}, {"type": "node", "id": 12305040990, "lat": -19.9300456, "lon": -43.9428183}, {"type": "node", "id": 12305040991, "lat": -19.9300231, "lon": -43.9429117}, {"type": "node", "id": 12305084314, "lat": -19.930032, "lon": -43.9428749}, {"type": "node", "id": 12803223360, "lat": -19.8428176, "lon": -43.9613545, "tags": {"addr:city": "Belo Horizonte", "addr:housenumber": "4325", "addr:street": "Avenida Portugal", "addr:suburb": "Itapo\u00e3", "amenity": "bar", "indoor_seating": "yes", "level": "1", "name": "Bar e Restaurante Seu Braz 1949", "opening_hours": "Tu-Sa 18:00-24:00; Su 12:00-24:00", "outdoor_seating": "yes", "toilets": "yes", "wheelchair": "no"}}, {"type": "way", "id": 126248819, "nodes": [1400044385, 1400044387, 1400044386, 1400044384, 1400044385], "tags": {"amenity": "bar", "building": "yes", "name": "Morrito do Mato", "source": "Bing"}}, {"type": "way", "id": 219413190, "nodes": [2285761107, 2285761087, 2285761105, 1862231515, 2285761107], "tags": {"amenity": "bar", "building": "yes"}}, {"type": "way", "id": 320045046, "nodes": [3265472969, 3265472970, 3265472971, 3265472972, 3265472973, 3265472974, 3265472969], "tags": {"amenity": "bar", "building": "yes", "name": "Druida Mix"}}, {"type": "way", "id": 1329974422, "nodes": [12305040988, 12305040989, 12305040990, 12305084314, 12305040991, 12305040988], "tags": {"addr:city": "Belo Horizonte", "addr:postcode": "30140-092", "addr:street": "Rua S\u00e3o Paulo", "addr:suburb": "Lourdes", "amenity": "bar", "building": "yes", "building:levels": "2", "height": "6", "name": "Zavino"}}]}